OBJECT_NAME,OBJECT_ID,EPOCH,MEAN_MOTION,ECCENTRICITY,INCLINATION,RA_OF_ASC_NODE,ARG_OF_PERICENTER,MEAN_ANOMALY,EPHEMERIS_TYPE,CLASSIFICATION_TYPE,NORAD_CAT_ID,ELEMENT_SET_NO,REV_AT_EPOCH,BSTAR,MEAN_MOTION_DOT,MEAN_MOTION_DDOT
BEIDOU-2 IGSO-5 (C10),2011-073A,2026-07-02T17:30:18.330912,1.00270596,.01145273,47.6496,271.3544,222.0502,141.5350,0,U,37948,999,5329,0,-.128E-5,0
LUCH 5A (SDCM/PRN 140),2011-074B,2026-07-08T11:04:17.749920,1.00272597,.00025816,8.8045,73.4951,54.9262,131.0250,0,U,37951,999,5326,0,-.42E-6,0
BEIDOU-2 G5 (C05),2012-008A,2026-07-08T03:42:53.074944,1.00268862,.00073949,3.6226,69.5690,272.8832,58.1023,0,U,38091,999,5257,0,.7E-6,0
BEIDOU-2 M3 (C11),2012-018A,2026-07-07T14:14:04.197696,1.86230177,.0020667,55.7391,304.1881,272.8507,86.9321,0,U,38250,999,9632,0,-.65E-6,0
BEIDOU-2 M4 (C12),2012-018B,2026-07-05T21:56:58.538688,1.86229838,.00118237,55.6406,303.4567,273.7127,86.1743,0,U,38251,999,9629,0,-.61E-6,0
SES-5 (EGNOS/PRN 136),2012-036A,2026-07-08T07:06:38.611008,1.00271613,.00019288,0.0466,317.2363,151.7726,288.8888,0,U,38652,999,4466,0,.49E-6,0
BEIDOU-2 M6 (C14),2012-050B,2026-07-08T07:24:57.268224,1.86230889,.00131005,56.5624,62.1961,0.6971,359.3663,0,U,38775,999,9370,0,-.46E-6,0
GSAT-10 (GAGAN/PRN 128),2012-051B,2026-07-08T07:14:52.614240,1.00269058,.00077747,0.0378,244.9644,210.4856,22.5027,0,U,38779,999,5031,0,-.149E-5,0
GPS BIIF-3  (PRN 24),2012-053A,2026-07-08T06:08:36.742848,2.00567795,.01815547,53.5888,142.7363,66.1010,295.7672,0,U,38833,999,9986,0,.59E-6,0
GSAT0103 (GALILEO-FM3),2012-055A,2026-07-05T01:45:34.213824,1.70473389,.0004125,55.8163,101.0549,308.6335,51.3483,0,U,38857,999,8531,0,.1E-7,0
BEIDOU-2 G6 (C02),2012-059A,2026-07-08T07:15:15.078240,1.00268743,.00089875,4.4715,73.3000,330.0949,75.6428,0,U,38953,999,5012,0,-.163E-5,0
LUCH 5B (SDCM/PRN 125),2012-061A,2026-07-08T10:11:56.539680,1.00271634,.00035862,10.5263,49.6666,141.0594,232.3936,0,U,38977,999,4982,0,-.13E-5,0
COSMOS 2485 (747),2013-019A,2026-07-07T02:06:57.361824,2.13103480,.0022942,65.4303,72.9368,232.1450,127.7096,0,U,39155,999,10270,0,-.19E-6,0
GPS BIIF-4  (PRN 27),2013-023A,2026-07-08T02:57:50.631552,2.00563343,.01413878,54.4878,268.1201,51.1023,310.2127,0,U,39166,999,9630,0,-.7E-7,0
IRNSS-1A,2013-034A,2026-07-07T17:25:54.891264,1.00281056,.00175755,35.7641,63.5758,183.3679,355.4225,0,U,39199,999,4757,0,.61E-6,0
GPS BIIF-5  (PRN 30),2014-008A,2026-07-08T03:00:27.874368,2.00561103,.00841834,53.6571,148.4659,231.5103,127.7130,0,U,39533,999,9010,0,.71E-6,0
ASTRA 5B (EGNOS/PRN 123),2014-011B,2026-07-08T12:05:49.352352,1.00271107,.00018649,0.0663,310.2084,161.6025,19.5934,0,U,39617,999,4488,0,.152E-5,0
COSMOS 2492 (754),2014-012A,2026-07-07T23:39:10.931616,2.13103463,.00103042,65.2846,313.2297,319.9334,40.0016,0,U,39620,999,9568,0,-.51E-6,0
IRNSS-1B,2014-017A,2026-07-07T17:25:47.402976,1.00273395,.00229449,28.8900,240.0484,195.8882,166.2518,0,U,39635,999,4500,0,.141E-5,0
LUCH 5V (SDCM/PRN 141),2014-023A,2026-07-08T14:08:59.338752,1.00267247,.00026948,5.1824,69.5307,68.2872,95.6381,0,U,39727,999,4457,0,-.257E-5,0
GPS BIIF-6  (PRN 06),2014-026A,2026-07-08T09:37:42.948192,2.00559384,.0038114,56.4870,330.6921,325.9785,33.7812,0,U,39741,999,8896,0,-.72E-6,0
COSMOS 2500 (755),2014-032A,2026-07-07T05:11:48.297408,2.13106140,.00079705,65.2207,313.0011,188.6383,171.3606,0,U,40001,999,9388,0,-.48E-6,0
GPS BIIF-7  (PRN 09),2014-045A,2026-07-06T23:55:57.756000,2.00559717,.00341577,55.3655,87.6758,118.3100,242.0738,0,U,40105,999,8647,0,-.19E-6,0
GSAT0201 (GALILEO 5),2014-050A,2026-07-05T04:52:57.756000,1.85520009,.1677026,48.8557,272.6971,180.0981,179.9258,0,U,40128,999,7865,0,-.32E-6,0
GSAT0202 (GALILEO 6),2014-050B,2026-07-07T01:49:14.945952,1.85520527,.1678641,48.8704,271.7059,180.8920,178.8253,0,U,40129,999,8085,0,-.3E-6,0
IRNSS-1C,2014-061A,2026-07-08T07:15:00.101664,1.00273438,.00221358,6.5701,88.5293,4.6995,24.7878,0,U,40269,999,4290,0,-.152E-5,0
GPS BIIF-8  (PRN 03),2014-068A,2026-07-07T20:42:09.300960,2.00577412,.00674644,57.0018,30.1588,71.2842,289.5001,0,U,40294,999,8562,0,-.51E-6,0
COSMOS 2501 (702K),2014-075A,2026-07-06T12:58:02.119584,2.13101455,.00226791,63.6180,189.7021,212.6524,147.2323,0,U,40315,999,9026,0,.114E-5,0
GPS BIIF-9  (PRN 26),2015-013A,2026-07-08T00:05:37.119840,2.00550112,.01101016,53.1667,203.3166,40.3142,320.5418,0,U,40534,999,8224,0,.108E-5,0
GSAT0203 (GALILEO 7),2015-017A,2026-07-08T07:54:54.200736,1.70476104,.00024273,56.7796,341.0202,260.3680,99.6048,0,U,40544,999,6956,0,-.74E-6,0
GSAT0204 (GALILEO 8),2015-017B,2026-07-07T09:53:57.571296,1.70475727,.00025512,56.7861,341.0638,235.3414,124.6352,0,U,40545,999,3258,0,-.72E-6,0
