BEIDOU-2 IGSO-5         
1 37948U 11073A   26183.72937883 -.00000128  00000+0  00000+0 0  9990
2 37948  47.6496 271.3544 0114527 222.0502 141.5350  1.00270596 53296
LUCH-5A                 
1 37951U 11074B   26189.46131655 -.00000042  00000+0  00000+0 0  9990
2 37951   8.8045  73.4951 0002581  54.9262 131.0250  1.00272597 53266
BEIDOU-2 G5             
1 38091U 12008A   26189.15478096  .00000070  00000+0  00000+0 0  9993
2 38091   3.6226  69.5690 0007394 272.8832  58.1023  1.00268862 52573
BEIDOU-2 M3             
1 38250U 12018A   26188.59310414 -.00000065  00000+0  00000+0 0  9992
2 38250  55.7391 304.1881 0020667 272.8507  86.9321  1.86230177 96321
BEIDOU-2 M4             
1 38251U 12018B   26186.91456642 -.00000061  00000+0  00000+0 0  9997
2 38251  55.6406 303.4567 0011823 273.7127  86.1743  1.86229838 96291
SES-5                   
1 38652U 12036A   26189.29628022  .00000049  00000+0  00000+0 0  9994
2 38652   0.0466 317.2363 0001928 151.7726 288.8888  1.00271613 44667
BEIDOU-2 M6             
1 38775U 12050B   26189.30899616 -.00000046  00000+0  00000+0 0  9995
2 38775  56.5624  62.1961 0013100   0.6971 359.3663  1.86230889 93702
GSAT-10                 
1 38779U 12051B   26189.30199785 -.00000149  00000+0  00000+0 0  9994
2 38779   0.0378 244.9644 0007774 210.4856  22.5027  1.00269058 50316
NAVSTAR 67 (USA 239)    
1 38833U 12053A   26189.25598082  .00000059  00000+0  00000+0 0  9993
2 38833  53.5888 142.7363 0181554  66.1010 295.7672  2.00567795 99869
GSAT0103 (GALILEO-FM3)  
1 38857U 12055A   26186.07331266  .00000001  00000+0  00000+0 0  9994
2 38857  55.8163 101.0549 0004125 308.6335  51.3483  1.70473389 85314
BEIDOU-2 G6             
1 38953U 12059A   26189.30225785 -.00000163  00000+0  00000+0 0  9992
2 38953   4.4715  73.3000 0008987 330.0949  75.6428  1.00268743 50125
LUCH-5B                 
1 38977U 12061A   26189.42495995 -.00000130  00000+0  00000+0 0  9990
2 38977  10.5263  49.6666 0003586 141.0594 232.3936  1.00271634 49821
COSMOS 2485 [GLONASS-M] 
1 39155U 13019A   26188.08816391 -.00000019  00000+0  00000+0 0  9997
2 39155  65.4303  72.9368 0022942 232.1450 127.7096  2.13103480102701
NAVSTAR 68 (USA 242)    
1 39166U 13023A   26189.12350268 -.00000007  00000+0  00000+0 0  9993
2 39166  54.4878 268.1201 0141387  51.1023 310.2127  2.00563343 96309
IRNSS-1A                
1 39199U 13034A   26188.72632976  .00000061  00000+0  00000+0 0  9994
2 39199  35.7641  63.5758 0017575 183.3679 355.4225  1.00281056 47577
NAVSTAR 69 (USA 248)    
1 39533U 14008A   26189.12532262  .00000071  00000+0  00000+0 0  9991
2 39533  53.6571 148.4659 0084183 231.5103 127.7130  2.00561103 90107
ASTRA 5B                
1 39617U 14011B   26189.50404343  .00000152  00000+0  00000+0 0  9998
2 39617   0.0663 310.2084 0001864 161.6025  19.5934  1.00271107 44885
COSMOS 2492 [GLONASS-M] 
1 39620U 14012A   26188.98554319 -.00000051  00000+0  00000+0 0  9992
2 39620  65.2846 313.2297 0010304 319.9334  40.0016  2.13103463 95682
IRNSS-1B                
1 39635U 14017A   26188.72624309  .00000141  00000+0  00000+0 0  9991
2 39635  28.8900 240.0484 0022944 195.8882 166.2518  1.00273395 45007
LUCH-5V                 
1 39727U 14023A   26189.58957568 -.00000257  00000+0  00000+0 0  9990
2 39727   5.1824  69.5307 0002694  68.2872  95.6381  1.00267247 44575
NAVSTAR 70 (USA 251)    
1 39741U 14026A   26189.40119153 -.00000072  00000+0  00000+0 0  9995
2 39741  56.4870 330.6921 0038114 325.9785  33.7812  2.00559384 88967
COSMOS 2500 [GLONASS-M] 
1 40001U 14032A   26188.21653122 -.00000048  00000+0  00000+0 0  9993
2 40001  65.2207 313.0011 0007970 188.6383 171.3606  2.13106140 93888
NAVSTAR 71 (USA 256)    
1 40105U 14045A   26187.99719625 -.00000019  00000+0  00000+0 0  9995
2 40105  55.3655  87.6758 0034157 118.3100 242.0738  2.00559717 86473
GSAT0201 (GALILEO 5)    
1 40128U 14050A   26186.20344625 -.00000032  00000+0  00000+0 0  9998
2 40128  48.8557 272.6971 1677026 180.0981 179.9258  1.85520009 78651
GSAT0202 (GALILEO 6)    
1 40129U 14050B   26188.07586743 -.00000030  00000+0  00000+0 0  9993
2 40129  48.8704 271.7059 1678641 180.8920 178.8253  1.85520527 80851
IRNSS-1C                
1 40269U 14061A   26189.30208451 -.00000152  00000+0  00000+0 0  9999
2 40269   6.5701  88.5293 0022135   4.6995  24.7878  1.00273438 42902
NAVSTAR 72 (USA 258)    
1 40294U 14068A   26188.86260765 -.00000051  00000+0  00000+0 0  9998
2 40294  57.0018  30.1588 0067464  71.2842 289.5001  2.00577412 85622
COSMOS 2501 [GLONASS-K] 
1 40315U 14075A   26187.54030231  .00000114  00000+0  00000+0 0  9996
2 40315  63.6180 189.7021 0022679 212.6524 147.2323  2.13101455 90266
NAVSTAR 73 (USA 260)    
1 40534U 15013A   26189.00390185  .00000108  00000+0  00000+0 0  9995
2 40534  53.1667 203.3166 0110101  40.3142 320.5418  2.00550112 82240
GSAT0203 (GALILEO 7)    
1 40544U 15017A   26189.32979399 -.00000074  00000+0  00000+0 0  9998
2 40544  56.7796 341.0202 0002427 260.3680  99.6048  1.70476104 69563
GSAT0204 (GALILEO 8)    
1 40545U 15017B   26188.41247189 -.00000072  00000+0  00000+0 0  9991
2 40545  56.7861 341.0638 0002551 235.3414 124.6352  1.70475727 32584
